Sr. No,Serial no.,Scientific Name,Tree Name,Latitude,Longitude,Girth(Inch),Height(Ft),Age(years),Condition,Address,Landmark,Concern Person,Ownership,Remarks
1,W11641629945746-yj4oO,Samanea Saman,Monkey pod tree,18.15459749,74.57459886,83,25,Heritage,Good,Irrigation Colony,canol Road,A Raut,Government,Good
2,W11641630080395-yj4oO,Ficus Benghalensis,Banyan,18.15673328,74.57206015,84,28,Heritage,Good,Irrigation Colony,Irrigation Colony,A Raut,Government,Good
3,W11641630085149-yj4oO,Ficus Benghalensis,Banyan,18.15689034,74.5721158,87,27.5,Heritage,Good,Irrigation Colony,Irrigation Colony,A Raut,Government,Good
4,W11641630086922-yj4oO,Ficus Benghalensis,Banyan,18.15702573,74.57226902,89,29,Heritage,Good,Irrigation Colony,Irrigation Colony,A Raut,Government,Good
5,W11641630087992-yj4oO,Ficus Benghalensis,Banyan,18.15721402,74.57236961,91,27,Heritage,Good,Irrigation Colony,Irrigation Colony,A Raut,Government,Good
6,W11641630093703-yj4oO,Ficus Benghalensis,Banyan,18.15736757,74.57249098,88,26,Heritage,Good,Irrigation Colony,Irrigation Colony,A Raut,Government,Good
7,W11641630097124-yj4oO,Ficus Benghalensis,Banyan,18.1569257,74.57202125,87,29,Heritage,Good,Irrigation Colony,Irrigation Colony,A Raut,Government,Good
8,W11641630098065-yj4oO,Ficus Benghalensis,Banyan,18.1570251,74.5721044,84,25,Heritage,Good,Irrigation Colony,Irrigation Colony,A Raut,Government,Good
9,W11641630099420-yj4oO,Ficus Benghalensis,Banyan,18.15711334,74.57217213,87,28,Heritage,Good,Irrigation Colony,Irrigation Colony,A Raut,Government,Good
10,W11641630100508-yj4oO,Ficus Benghalensis,Banyan,18.15720414,74.57223415,89,27.5,Heritage,Good,Irrigation Colony,Irrigation Colony,A Raut,Government,Good
11,W11641630109567-yj4oO,Ficus Benghalensis,Banyan,18.15714839,74.57233474,91,29,Heritage,Good,Irrigation Colony,Irrigation Colony,A Raut,Government,Good
12,W11641630222523-yj4oO,Ficus Benghalensis,Banyan,18.1579305,74.57287453,88,27,Heritage,Good,Irrigation Colony,Irrigation Colony,A Raut,Government,Good
13,W11641630223266-yj4oO,Ficus Benghalensis,Banyan,18.15794994,74.5729949,87,26,Heritage,Good,Irrigation Colony,Irrigation Colony,A Raut,Government,Good
14,W11641630223939-yj4oO,Ficus Benghalensis,Banyan,18.15797606,74.57311191,84,29,Heritage,Good,Irrigation Colony,Irrigation Colony,A Raut,Government,Good
15,W11641630225207-yj4oO,Ficus Benghalensis,Banyan,18.15799964,74.57326479,92,25,Heritage,Good,Irrigation Colony,Irrigation Colony,A Raut,Government,Good
16,W11641630227132-yj4oO,Ficus Benghalensis,Banyan,18.15806749,74.57282525,94,28,Heritage,Good,Irrigation Colony,Irrigation Colony,A Raut,Government,Good
17,W11641630228098-yj4oO,Ficus Benghalensis,Banyan,18.15810445,74.57293253,84,27.5,Heritage,Good,Irrigation Colony,Irrigation Colony,A Raut,Government,Good
18,W11641630228739-yj4oO,Ficus Benghalensis,Banyan,18.15813503,74.57302071,92,29,Heritage,Good,Irrigation Colony,Irrigation Colony,A Raut,Government,Good
19,W11641630229980-yj4oO,Ficus Benghalensis,Banyan,18.15817772,74.57314946,94,27,Heritage,Good,Irrigation Colony,Irrigation Colony,A Raut,Government,Good
20,W11641630230637-yj4oO,Ficus Benghalensis,Banyan,18.15820894,74.57325339,84,26,Heritage,Good,Irrigation Colony,Irrigation Colony,A Raut,Government,Good
21,W11641630236927-yj4oO,Ficus Benghalensis,Banyan,18.15839308,74.57279976,87,29,Heritage,Good,Irrigation Colony,Irrigation Colony,A Raut,Government,Good
22,W11641630237404-yj4oO,Ficus Benghalensis,Banyan,18.15853421,74.57268678,89,25,Heritage,Good,Irrigation Colony,Irrigation Colony,A Raut,Government,Good
23,W11641630239200-yj4oO,Ficus Benghalensis,Banyan,18.15884196,74.57278702,91,28,Heritage,Good,Irrigation Colony,Irrigation Colony,A Raut,Government,Good
24,W11641630244687-yj4oO,Ficus Benghalensis,Banyan,18.15881647,74.57293086,88,29,Heritage,Good,Irrigation Colony,Irrigation Colony,A Raut,Government,Good
25,W11641630246170-yj4oO,Ficus Benghalensis,Banyan,18.15879162,74.57302541,87,27,Heritage,Good,Irrigation Colony,Irrigation Colony,A Raut,Government,Good
26,W11641630247259-yj4oO,Ficus Benghalensis,Banyan,18.15876231,74.57311727,84,26,Heritage,Good,Irrigation Colony,Irrigation Colony,A Raut,Government,Good
27,W11641630248027-yj4oO,Ficus Benghalensis,Banyan,18.15872886,74.57321383,92,29,Heritage,Good,Irrigation Colony,Irrigation Colony,A Raut,Government,Good
28,W11641630249357-yj4oO,Ficus Benghalensis,Banyan,18.15868585,74.57332145,94,27.5,Heritage,Good,Irrigation Colony,Irrigation Colony,A Raut,Government,Good
29,W11641630250087-yj4oO,Ficus Benghalensis,Banyan,18.15862405,74.57336437,84,29,Heritage,Good,Irrigation Colony,Irrigation Colony,A Raut,Government,Good
30,W11641630250860-yj4oO,Ficus Benghalensis,Banyan,18.15852943,74.5733647,87,27,Heritage,Good,Irrigation Colony,Irrigation Colony,A Raut,Government,Good
31,W11641630252500-yj4oO,Ficus Benghalensis,Banyan,18.15844023,74.57333889,89,26,Heritage,Good,Irrigation Colony,Irrigation Colony,A Raut,Government,Good
32,W11641630253887-yj4oO,Ficus Benghalensis,Banyan,18.15833733,74.57330234,91,29,Heritage,Good,Irrigation Colony,Irrigation Colony,A Raut,Government,Good
33,W11641630301794-yj4oO,Tamarindus Indica,Tamarind,18.15827935,74.57333922,46,31,Heritage,Good,Irrigation Colony,Irrigation Colony,A Raut,Government,Good
34,W11641630304284-yj4oO,Tamarindus Indica,Tamarind,18.15843927,74.57322389,47,33,Heritage,Good,Irrigation Colony,Irrigation Colony,A Raut,Government,Good
35,W11641630321232-yj4oO,Tamarindus Indica,Tamarind,18.15847687,74.57223583,49,27,Heritage,Good,Irrigation Colony,Irrigation Colony,A Raut,Government,Good
36,W11641630322161-yj4oO,Tamarindus Indica,Tamarind,18.15864476,74.57250874,55,26,Heritage,Good,Irrigation Colony,Irrigation Colony,A Raut,Government,Good
37,W11641630355325-yj4oO,Azadirachta Indica,Neem Tree,18.15809616,74.57167726,52,29,Heritage,Good,Irrigation Colony,Irrigation Colony,A Raut,Government,Good
38,W11641630359699-yj4oO,Azadirachta Indica,Neem Tree,18.1586266,74.57189754,56,25,Heritage,Good,Irrigation Colony,Irrigation Colony,A Raut,Government,Good
39,W11641630360039-yj4oO,Azadirachta Indica,Neem Tree,18.15893148,74.57205478,59,28,Heritage,Good,Irrigation Colony,Irrigation Colony,A Raut,Government,Good
40,W11641630369288-yj4oO,Azadirachta Indica,Neem Tree,18.15765398,74.57156125,57,29,Heritage,Good,Irrigation Colony,Irrigation Colony,A Raut,Government,Good
41,W11641630369990-yj4oO,Azadirachta Indica,Neem Tree,18.15784417,74.57168933,55,27,Heritage,Good,Irrigation Colony,Irrigation Colony,A Raut,Government,Good
42,W11641630375867-yj4oO,Azadirachta Indica,Neem Tree,18.15750838,74.57193241,61,26,Heritage,Good,Irrigation Colony,Irrigation Colony,A Raut,Government,Good
43,W11641630395891-yj4oO,Ficus Benghalensis,Banyan,18.15777472,74.57244772,84,29,Heritage,Good,Irrigation Colony,Irrigation Colony,A Raut,Government,Good
44,W11641630401994-yj4oO,Ficus Benghalensis,Banyan,18.15770877,74.57258552,87,27.5,Heritage,Good,Irrigation Colony,Irrigation Colony,A Raut,Government,Good
45,W11641630429136-yj4oO,Ficus racemosa,Cluster fig,18.15700312,74.57282927,65,29,Heritage,Good,Irrigation Colony,Irrigation Colony,A Raut,Government,Good
46,W11641630462968-yj4oO,Ficus Religiosa,peepal tree,18.1573064,74.57209099,66,27,Heritage,Good,Irrigation Colony,Irrigation Colony,A Raut,Government,Good
47,W11641630476388-yj4oO,Ficus Religiosa,peepal tree,18.15730163,74.57284335,69,26,Heritage,Good,Irrigation Colony,Irrigation Colony,A Raut,Government,Good
48,W11641630666518-yj4oO,Samanea Saman,Monkey pod tree,18.15387844,74.57519095,80,29,Heritage,Good,Conol Road,Conol Road,A Raut,Government,Good
49,W11641630717523-yj4oO,Arecaceae,Pilto Pam,18.15818154,74.57216609,71,31,Heritage,Good,Conol Road,Conol Road,A Raut,Government,Good
50,W11641630717934-yj4oO,Arecaceae,Pilto Pam,18.15837524,74.5724494,69,33,Heritage,Good,Conol Road,Conol Road,A Raut,Government,Good
51,W11641630718337-yj4oO,Arecaceae,Pilto Pam,18.15813471,74.57250807,71,27,Heritage,Good,Conol Road,Conol Road,A Raut,Government,Good
52,W11641630803731-yj4oO,Ficus Benghalensis,Banyan,18.15511137,74.57127962,87,26,Heritage,Good,Shahu Highshool,Shahu Highshool,A Raut,Government,Good
53,W11641630805274-yj4oO,Ficus Benghalensis,Banyan,18.15494985,74.57131751,89,29,Heritage,Good,Shahu Highshool,Shahu Highshool,A Raut,Government,Good
54,W11641630807312-yj4oO,Ficus Benghalensis,Banyan,18.15472461,74.57131717,91,25,Heritage,Good,Shahu Highshool,Shahu Highshool,A Raut,Government,Good
55,W11641630808048-yj4oO,Ficus Benghalensis,Banyan,18.15461183,74.57133327,88,28,Heritage,Good,Shahu Highshool,Shahu Highshool,A Raut,Government,Good
56,W11641631152313-yj4oO,Ficus Benghalensis,Banyan,18.15383448,74.57387265,87,29,Heritage,Good,Shahu Highshool,Shahu Highshool,A Raut,Government,Good
57,W11641631198340-yj4oO,Tamarindus Indica,Tamarind,18.15369589,74.57392864,48,27,Heritage,Good,Charcha Of chirst,Charcha Of chirst,A Raut,Government,Good
58,W11641631226582-yj4oO,Samanea Saman,Monkey pod tree,18.15378095,74.57368825,83,26,Heritage,Good,Charcha Of chirst,Charcha Of chirst,A Raut,Government,Good
59,W11641631318398-yj4oO,Tamarindus Indica,Tamarind,18.15355253,74.57418311,51,29,Heritage,Good,Charcha Of chirst,Charcha Of chirst,A Raut,Government,Good
60,W11641631757834-yj4oO,Tamarindus Indica,Tamarind,18.15829241,74.57064696,52,27.5,Heritage,Good,Pandhricha Mahadev,Pandhricha Mahadev,A Raut,Government,Good
61,W11641631758545-yj4oO,Tamarindus Indica,Tamarind,18.15809808,74.57087662,49,29,Heritage,Good,Pandhricha Mahadev,Pandhricha Mahadev,A Raut,Government,Good
62,W11641631807998-yj4oO,Tamarindus Indica,Tamarind,18.15864444,74.57022451,46,27,Heritage,Good,Pandhricha Mahadev,Pandhricha Mahadev,A Raut,Government,Good
63,W11641631831299-yj4oO,Ficus Benghalensis,Banyan,18.15839276,74.57047429,47,26,Heritage,Good,Pandhricha Mahadev,Pandhricha Mahadev,A Raut,Government,Good
64,W11641631831988-yj4oO,Ficus Benghalensis,Banyan,18.15847209,74.57043003,49,29,Heritage,Good,Pandhricha Mahadev,Pandhricha Mahadev,A Raut,Government,Good
65,W11641631834198-yj4oO,Ficus Benghalensis,Banyan,18.15870465,74.57013935,55,31,Heritage,Good,Pandhricha Mahadev,Pandhricha Mahadev,A Raut,Government,Good
66,W11641631864819-yj4oO,Ficus racemosa,Cluster fig,18.15872026,74.57038913,75,33,Heritage,Good,Pandhricha Mahadev,Pandhricha Mahadev,A Raut,Government,Good
67,W11641631887764-yj4oO,Azadirachta Indica,Neem Tree,18.15814618,74.57112271,53,27,Heritage,Good,Pandhricha Mahadev,Pandhricha Mahadev,A Raut,Government,Good
68,W11641631947127-yj4oO,Ficus Religiosa,peepal tree,18.1591239,74.56928909,65,26,Heritage,Good,Pandhricha Mahadev,Pandhricha Mahadev,A Raut,Government,Good
69,W11641631974836-yj4oO,Tamarindus Indica,Tamarind,18.15894645,74.56943661,49,29,Heritage,Good,Pandhricha Mahadev,Pandhricha Mahadev,A Raut,Government,Good
70,W11641631996636-yj4oO,Tamarindus Indica,Tamarind,18.15898149,74.56954692,53,25,Heritage,Good,Pandhricha Mahadev,Pandhricha Mahadev,A Raut,Government,Good
71,W11641632056079-yj4oO,Azadirachta Indica,Neem Tree,18.15892033,74.56916872,59,28,Heritage,Good,Pandhricha Mahadev,Pandhricha Mahadev,A Raut,Government,Good
72,W11641632125043-yj4oO,Azadirachta Indica,Neem Tree,18.15843418,74.56761003,54,29,Heritage,Good,Pandhricha Mahadev,Pandhricha Mahadev,A Raut,Government,Good
73,W11641632125791-yj4oO,Azadirachta Indica,Neem Tree,18.15842908,74.56775486,52,27,Heritage,Good,Pandhricha Mahadev,Pandhricha Mahadev,A Raut,Government,Good
74,W11641632127223-yj4oO,Azadirachta Indica,Neem Tree,18.15844437,74.56792384,52,26,Heritage,Good,Pandhricha Mahadev,Pandhricha Mahadev,A Raut,Government,Good
75,W11641632129304-yj4oO,Azadirachta Indica,Neem Tree,18.15851573,74.56804991,56,29,Heritage,Good,Pandhricha Mahadev,Pandhricha Mahadev,A Raut,Government,Good
76,W11641632137284-yj4oO,Azadirachta Indica,Neem Tree,18.15858455,74.56820212,59,27.5,Heritage,Good,Pandhricha Mahadev,Pandhricha Mahadev,A Raut,Government,Good
77,W11641632140129-yj4oO,Azadirachta Indica,Neem Tree,18.15867853,74.56833489,57,29,Heritage,Good,Pandhricha Mahadev,Pandhricha Mahadev,A Raut,Government,Good
78,W11641632155393-yj4oO,Azadirachta Indica,Neem Tree,18.1587518,74.56779309,55,27,Heritage,Good,Pandhricha Mahadev,Pandhricha Mahadev,A Raut,Government,Good
79,W11641632156034-yj4oO,Azadirachta Indica,Neem Tree,18.15872504,74.56788428,61,26,Heritage,Good,Pandhricha Mahadev,Pandhricha Mahadev,A Raut,Government,Good
80,W11641632156604-yj4oO,Azadirachta Indica,Neem Tree,18.15874861,74.56801236,53,29,Heritage,Good,Pandhricha Mahadev,Pandhricha Mahadev,A Raut,Government,Good
81,W11641632163000-yj4oO,Azadirachta Indica,Neem Tree,18.15874129,74.56808344,59,31,Heritage,Good,Pandhricha Mahadev,Pandhricha Mahadev,A Raut,Government,Good
82,W11641632163564-yj4oO,Azadirachta Indica,Neem Tree,18.15872631,74.56815284,54,33,Heritage,Good,Pandhricha Mahadev,Pandhricha Mahadev,A Raut,Government,Good
83,W11641632167823-yj4oO,Azadirachta Indica,Neem Tree,18.1586798,74.56805829,52,27,Heritage,Good,Pandhricha Mahadev,Pandhricha Mahadev,A Raut,Government,Good
84,W11641632169655-yj4oO,Azadirachta Indica,Neem Tree,18.15869095,74.56794631,52,26,Heritage,Good,Pandhricha Mahadev,Pandhricha Mahadev,A Raut,Government,Good
85,W11641632174362-yj4oO,Azadirachta Indica,Neem Tree,18.15878684,74.56825409,56,29,Heritage,Good,Pandhricha Mahadev,Pandhricha Mahadev,A Raut,Government,Good
86,W11641632181906-yj4oO,Azadirachta Indica,Neem Tree,18.15869095,74.56810825,59,25,Heritage,Good,Pandhricha Mahadev,Pandhricha Mahadev,A Raut,Government,Good
87,W11641632182397-yj4oO,Azadirachta Indica,Neem Tree,18.15867916,74.56799224,57,28,Heritage,Good,Pandhricha Mahadev,Pandhricha Mahadev,A Raut,Government,Good
88,W11641632185005-yj4oO,Azadirachta Indica,Neem Tree,18.15878653,74.56791177,55,29,Heritage,Good,Pandhricha Mahadev,Pandhricha Mahadev,A Raut,Government,Good
89,W11641632245136-yj4oO,Azadirachta Indica,Neem Tree,18.15870656,74.56853908,61,27,Heritage,Good,Pandhricha Mahadev,Pandhricha Mahadev,A Raut,Government,Good
90,W11641632246444-yj4oO,Azadirachta Indica,Neem Tree,18.15876422,74.56870604,53,26,Heritage,Good,Pandhricha Mahadev,Pandhricha Mahadev,A Raut,Government,Good
91,W11641632277207-yj4oO,Ficus racemosa,Cluster fig,18.1585957,74.56804924,71,29,Heritage,Good,Pandhricha Mahadev,Pandhricha Mahadev,A Raut,Government,Good
92,W11641632298347-yj4oO,Syzygium Cumini,Java Plum,18.15874288,74.56823062,69,27.5,Heritage,Good,Pandhricha Mahadev,Pandhricha Mahadev,A Raut,Government,Good
93,W11641632339879-yj4oO,Tamarindus Indica,Tamarind,18.15865878,74.56770055,52,29,Heritage,Good,Pandhricha Mahadev,Pandhricha Mahadev,A Raut,Government,Good
94,W11641632365850-yj4oO,Azadirachta Indica,Neem Tree,18.15839212,74.5676697,52,27,Heritage,Good,Pandhricha Mahadev,Pandhricha Mahadev,A Raut,Government,Good
95,W11641632448382-yj4oO,Ficus Religiosa,peepal tree,18.15859984,74.56793826,72,26,Heritage,Good,Pandhari cha Mahdev,Pandhari cha Mahdev,A Raut,Government,Good
96,W11641632519646-yj4oO,Limonia Acidissima,Wood-apple,18.15839181,74.56758957,59,29,Heritage,Good,Pandhari cha Mahdev,Pandhari cha Mahdev,A Raut,Government,Good
97,W11641633226149-yj4oO,Cocos Nucifera,Coconut,18.16533032,74.57433265,57,31,Heritage,Good,Jalshudhikarn Kendr,Jalshudhikarn Kendr,A Raut,Government,Good
98,W11641633226914-yj4oO,Cocos Nucifera,Coconut,18.16530196,74.57443055,55,33,Heritage,Good,Jalshudhikarn Kendr,Jalshudhikarn Kendr,A Raut,Government,Good
99,W11641633227336-yj4oO,Cocos Nucifera,Coconut,18.16529304,74.57451537,61,64,Heritage,Good,Jalshudhikarn Kendr,Jalshudhikarn Kendr,A Raut,Government,Good
100,W11641633232926-yj4oO,Cocos Nucifera,Coconut,18.16523793,74.57444061,53,61,Heritage,Good,Jalshudhikarn Kendr,Jalshudhikarn Kendr,A Raut,Government,Good
101,W11641633280002-yj4oO,Cocos Nucifera,Coconut,18.16534561,74.57481779,59,60,Heritage,Good,Jalshudhikarn Kendr,Jalshudhikarn Kendr,A Raut,Government,Good
102,W11641633280976-yj4oO,Cocos Nucifera,Coconut,18.16536472,74.57489558,54,65,Heritage,Good,Jalshudhikarn Kendr,Jalshudhikarn Kendr,A Raut,Government,Good
103,W11641633282282-yj4oO,Cocos Nucifera,Coconut,18.16537492,74.57495358,52,64,Heritage,Good,Jalshudhikarn Kendr,Jalshudhikarn Kendr,A Raut,Government,Good
104,W11641633283249-yj4oO,Cocos Nucifera,Coconut,18.16538607,74.57501393,40,61,Heritage,Good,Jalshudhikarn Kendr,Jalshudhikarn Kendr,A Raut,Government,Good
105,W11641633283841-yj4oO,Cocos Nucifera,Coconut,18.16539435,74.5750659,44,60,Heritage,Good,Jalshudhikarn Kendr,Jalshudhikarn Kendr,A Raut,Government,Good
106,W11641633284895-yj4oO,Cocos Nucifera,Coconut,18.16540773,74.57512893,43,65,Heritage,Good,Jalshudhikarn Kendr,Jalshudhikarn Kendr,A Raut,Government,Good
107,W11641633285516-yj4oO,Cocos Nucifera,Coconut,18.16542429,74.57520034,44,64,Heritage,Good,Jalshudhikarn Kendr,Jalshudhikarn Kendr,A Raut,Government,Good
108,W11641633287413-yj4oO,Cocos Nucifera,Coconut,18.1654501,74.57526337,43,61,Heritage,Good,Jalshudhikarn Kendr,Jalshudhikarn Kendr,A Raut,Government,Good
109,W11641633323147-yj4oO,Samanea Saman,Monkey pod tree,18.16540359,74.57449056,84,27,Heritage,Good,Jalshudhikarn Kendr,Jalshudhikarn Kendr,A Raut,Government,Good
110,W11641633325451-yj4oO,Samanea Saman,Monkey pod tree,18.16560078,74.57506523,86,26,Heritage,Good,Jalshudhikarn Kendr,Jalshudhikarn Kendr,A Raut,Government,Good
111,W11641634074493-yj4oO,Ficus Benghalensis,Banyan,18.16070659,74.57847632,87,29,Heritage,Good,Technical Highschool,Technical Highschool,A Raut,Government,Good
112,W11641634135505-yj4oO,Tamarindus Indica,Tamarind,18.1603912,74.57776319,46,25,Heritage,Good,Technical Highschool,Technical Highschool,A Raut,Government,Good
113,W11641634153289-yj4oO,Ficus Benghalensis,Banyan,18.16021789,74.57795598,47,28,Heritage,Good,Technical Highschool,Technical Highschool,A Raut,Government,Good
114,W11641634159772-yj4oO,Ficus Benghalensis,Banyan,18.16021502,74.57818463,49,29,Heritage,Good,Technical Highschool,Technical Highschool,A Raut,Government,Good
115,W11641634160251-yj4oO,Ficus Benghalensis,Banyan,18.16022522,74.5783459,55,27,Heritage,Good,Technical Highschool,Technical Highschool,A Raut,Government,Good
116,W11641634226197-yj4oO,Tamarindus Indica,Tamarind,18.16054857,74.57833417,48,26,Heritage,Good,Technical Highschool,Technical Highschool,A Raut,Government,Good
117,W11641634317579-yj4oO,Tamarindus Indica,Tamarind,18.16079005,74.57834825,51,29,Heritage,Good,Technical Highschool,Technical Highschool,A Raut,Government,Good
118,W11641634318891-yj4oO,Tamarindus Indica,Tamarind,18.16100891,74.57833819,52,27.5,Heritage,Good,Technical Highschool,Technical Highschool,A Raut,Government,Good
119,W11641634319766-yj4oO,Tamarindus Indica,Tamarind,18.16111755,74.57836971,49,29,Heritage,Good,Technical Highschool,Technical Highschool,A Raut,Government,Good
120,W11641634320151-yj4oO,Tamarindus Indica,Tamarind,18.1611596,74.57846459,46,27,Heritage,Good,Technical Highschool,Technical Highschool,A Raut,Government,Good
121,W11641634323133-yj4oO,Tamarindus Indica,Tamarind,18.16090283,74.57834993,47,26,Heritage,Good,Technical Highschool,Technical Highschool,A Raut,Government,Good
122,W11641634324219-yj4oO,Tamarindus Indica,Tamarind,18.16128193,74.57848236,49,29,Heritage,Good,Technical Highschool,Technical Highschool,A Raut,Government,Good
123,W11641634329064-yj4oO,Tamarindus Indica,Tamarind,18.16138738,74.57815479,55,31,Heritage,Good,Technical Highschool,Technical Highschool,A Raut,Government,Good
124,W11641634340394-yj4oO,Tamarindus Indica,Tamarind,18.16088658,74.57819872,48,33,Heritage,Good,Technical Highschool,Technical Highschool,A Raut,Government,Good
125,W11641634341083-yj4oO,Tamarindus Indica,Tamarind,18.16098598,74.57807031,51,27,Heritage,Good,Technical Highschool,Technical Highschool,A Raut,Government,Good
126,W11641634344629-yj4oO,Tamarindus Indica,Tamarind,18.16105734,74.57820039,52,26,Heritage,Good,Technical Highschool,Technical Highschool,A Raut,Government,Good
127,W11641634353724-yj4oO,Tamarindus Indica,Tamarind,18.16106339,74.57792412,49,29,Heritage,Good,Technical Highschool,Technical Highschool,A Raut,Government,Good
128,W11641634357970-yj4oO,Tamarindus Indica,Tamarind,18.16093245,74.57783192,46,25,Heritage,Good,Technical Highschool,Technical Highschool,A Raut,Government,Good
129,W11641634359473-yj4oO,Tamarindus Indica,Tamarind,18.16093914,74.57793888,47,28,Heritage,Good,Technical Highschool,Technical Highschool,A Raut,Government,Good
130,W11641634362369-yj4oO,Tamarindus Indica,Tamarind,18.16106753,74.57807399,49,29,Heritage,Good,Technical Highschool,Technical Highschool,A Raut,Government,Good
131,W11641634362846-yj4oO,Tamarindus Indica,Tamarind,18.16114399,74.5781045,55,27,Heritage,Good,Technical Highschool,Technical Highschool,A Raut,Government,Good
132,W11641634363459-yj4oO,Tamarindus Indica,Tamarind,18.16122586,74.57810417,48,26,Heritage,Good,Technical Highschool,Technical Highschool,A Raut,Government,Good
133,W11641634364540-yj4oO,Tamarindus Indica,Tamarind,18.16129435,74.57811221,51,29,Heritage,Good,Technical Highschool,Technical Highschool,A Raut,Government,Good
134,W11641634366093-yj4oO,Tamarindus Indica,Tamarind,18.16113411,74.57794156,52,27.5,Heritage,Good,Technical Highschool,Technical Highschool,A Raut,Government,Good
135,W11641634366589-yj4oO,Tamarindus Indica,Tamarind,18.16120229,74.57796,49,29,Heritage,Good,Technical Highschool,Technical Highschool,A Raut,Government,Good
136,W11641634369045-yj4oO,Tamarindus Indica,Tamarind,18.16127779,74.57797911,46,27,Heritage,Good,Technical Highschool,Technical Highschool,A Raut,Government,Good
137,W11641634369623-yj4oO,Tamarindus Indica,Tamarind,18.16139439,74.57801163,47,26,Heritage,Good,Technical Highschool,Technical Highschool,A Raut,Government,Good
138,W11641634375270-yj4oO,Tamarindus Indica,Tamarind,18.16118126,74.57821481,49,29,Heritage,Good,Technical Highschool,Technical Highschool,A Raut,Government,Good
139,W11641634375887-yj4oO,Tamarindus Indica,Tamarind,18.16128384,74.57819335,55,31,Heritage,Good,Technical Highschool,Technical Highschool,A Raut,Government,Good
140,W11641634381353-yj4oO,Tamarindus Indica,Tamarind,18.16105415,74.57798582,48,33,Heritage,Good,Technical Highschool,Technical Highschool,A Raut,Government,Good
141,W11641634381764-yj4oO,Tamarindus Indica,Tamarind,18.16112296,74.5779999,51,27,Heritage,Good,Technical Highschool,Technical Highschool,A Raut,Government,Good
142,W11641634382904-yj4oO,Tamarindus Indica,Tamarind,18.16119114,74.57802035,52,26,Heritage,Good,Technical Highschool,Technical Highschool,A Raut,Government,Good
143,W11641634383299-yj4oO,Tamarindus Indica,Tamarind,18.16126568,74.57803611,49,29,Heritage,Good,Technical Highschool,Technical Highschool,A Raut,Government,Good
144,W11641634384625-yj4oO,Tamarindus Indica,Tamarind,18.16141286,74.57806695,46,25,Heritage,Good,Technical Highschool,Technical Highschool,A Raut,Government,Good
145,W11641634388064-yj4oO,Tamarindus Indica,Tamarind,18.16100923,74.57811691,47,28,Heritage,Good,Technical Highschool,Technical Highschool,A Raut,Government,Good
146,W11641634388389-yj4oO,Tamarindus Indica,Tamarind,18.16108059,74.57813166,49,29,Heritage,Good,Technical Highschool,Technical Highschool,A Raut,Government,Good
147,W11641634399839-yj4oO,Tamarindus Indica,Tamarind,18.16146575,74.57801465,55,27,Heritage,Good,Technical Highschool,Technical Highschool,A Raut,Government,Good
148,W11641634400678-yj4oO,Tamarindus Indica,Tamarind,18.16152213,74.57802672,48,26,Heritage,Good,Technical Highschool,Technical Highschool,A Raut,Government,Good
149,W11641634401827-yj4oO,Tamarindus Indica,Tamarind,18.16158266,74.57802605,51,29,Heritage,Good,Technical Highschool,Technical Highschool,A Raut,Government,Good
150,W11641634407105-yj4oO,Tamarindus Indica,Tamarind,18.16158999,74.57807634,52,27.5,Heritage,Good,Technical Highschool,Technical Highschool,A Raut,Government,Good
151,W11641634407891-yj4oO,Tamarindus Indica,Tamarind,18.1615113,74.57807332,49,29,Heritage,Good,Technical Highschool,Technical Highschool,A Raut,Government,Good
152,W11641634408619-yj4oO,Tamarindus Indica,Tamarind,18.16147021,74.57807165,46,27,Heritage,Good,Technical Highschool,Technical Highschool,A Raut,Government,Good
153,W11641634411954-yj4oO,Tamarindus Indica,Tamarind,18.1609229,74.57801566,47,26,Heritage,Good,Technical Highschool,Technical Highschool,A Raut,Government,Good
154,W11641634414459-yj4oO,Tamarindus Indica,Tamarind,18.16061611,74.57776051,49,29,Heritage,Good,Technical Highschool,Technical Highschool,A Raut,Government,Good
155,W11641634592336-yj4oO,Tamarindus Indica,Tamarind,18.16196368,74.57823727,55,31,Heritage,Good,Technical Highschool,Technical Highschool,A Raut,Government,Good
156,W11641634601955-yj4oO,Tamarindus Indica,Tamarind,18.16085918,74.57780175,48,33,Heritage,Good,Technical Highschool,Technical Highschool,A Raut,Government,Good
157,W11641634853058-yj4oO,Tamarindus Indica,Tamarind,18.16073876,74.57737695,51,27,Heritage,Good,Tapovan Colony,Tapovan Colony,A Raut,Private,Good
158,W11641634853455-yj4oO,Tamarindus Indica,Tamarind,18.16091971,74.5771949,52,26,Heritage,Good,Tapovan Colony,Tapovan Colony,A Raut,Private,Good
159,W11641634854117-yj4oO,Tamarindus Indica,Tamarind,18.16073143,74.57709298,49,29,Heritage,Good,Tapovan Colony,Tapovan Colony,A Raut,Private,Good
160,W11641634854594-yj4oO,Tamarindus Indica,Tamarind,18.16048008,74.57718216,46,25,Heritage,Good,Tapovan Colony,Tapovan Colony,A Raut,Private,Good
161,W11641634862769-yj4oO,Tamarindus Indica,Tamarind,18.16065052,74.57735348,47,28,Heritage,Good,Tapovan Colony,Tapovan Colony,A Raut,Private,Good
162,W11641634867382-yj4oO,Tamarindus Indica,Tamarind,18.16080471,74.57741451,49,29,Heritage,Good,Tapovan Colony,Tapovan Colony,A Raut,Private,Good
163,W11641634871231-yj4oO,Tamarindus Indica,Tamarind,18.16086014,74.57734443,55,27,Heritage,Good,Tapovan Colony,Tapovan Colony,A Raut,Private,Good
164,W11641634879483-yj4oO,Tamarindus Indica,Tamarind,18.16044312,74.57714964,48,26,Heritage,Good,Tapovan Colony,Tapovan Colony,A Raut,Private,Good
165,W11641634883695-yj4oO,Tamarindus Indica,Tamarind,18.16056323,74.57720362,51,29,Heritage,Good,Tapovan Colony,Tapovan Colony,A Raut,Private,Good
166,W11641634938490-yj4oO,Tamarindus Indica,Tamarind,18.16108728,74.57665678,52,27.5,Heritage,Good,Tapovan Colony,Tapovan Colony,A Raut,Private,Good
167,W11641634939512-yj4oO,Tamarindus Indica,Tamarind,18.16122905,74.57680698,49,29,Heritage,Good,Tapovan Colony,Tapovan Colony,A Raut,Private,Good
168,W11641634945654-yj4oO,Tamarindus Indica,Tamarind,18.16107135,74.57717311,46,27,Heritage,Good,Tapovan Colony,Tapovan Colony,A Raut,Private,Good
169,W11641635217860-yj4oO,Samanea Saman,Monkey pod tree,18.16125708,74.5766836,81,26,Heritage,Good,Tapovan Colony,Tapovan Colony,A Raut,Government,Good
170,W11641635277627-yj4oO,Syzygium Cumini,Java Plum,18.16125644,74.57674328,65,29,Heritage,Good,Tapovan Colony,Tapovan Colony,A Raut,Government,Good
171,W11641635495231-yj4oO,Tamarindus Indica,Tamarind,18.16122459,74.57676038,55,31,Heritage,Good,Tapovan Colony,Tapovan Colony,A Raut,Private,Good
172,W11641635581521-yj4oO,Magnifera Indica,Mango,18.16118222,74.57555003,48,33,Heritage,Good,ABanyanhut Nagar,ABanyanhut Nagar,A Raut,Private,Good
173,W11641635584418-yj4oO,Magnifera Indica,Mango,18.16125262,74.57528349,51,27,Heritage,Good,ABanyanhut Nagar,ABanyanhut Nagar,A Raut,Private,Good
174,W11641635619123-yj4oO,Magnifera Indica,Mango,18.16134564,74.57487915,52,26,Heritage,Good,ABanyanhut Nagar,ABanyanhut Nagar,A Raut,Private,Good
175,W11641635751169-yj4oO,Magnifera Indica,mango,18.16086396,74.57508098,49,29,Heritage,Good,ABanyanhut Nagar,ABanyanhut Nagar,A Raut,Private,Good
176,W11641635751851-yj4oO,Magnifera Indica,mango,18.16085823,74.57524158,58,25,Heritage,Good,ABanyanhut Nagar,ABanyanhut Nagar,A Raut,Private,Good
177,W11641635793136-yj4oO,Tamarindus Indica,Tamarind,18.16035934,74.57505953,46,28,Heritage,Good,ABanyanhut Nagar,ABanyanhut Nagar,A Raut,Private,Good
178,W11641635794237-yj4oO,Tamarindus Indica,Tamarind,18.16053997,74.57513262,47,29,Heritage,Good,ABanyanhut Nagar,ABanyanhut Nagar,A Raut,Private,Good
179,W11641635796472-yj4oO,Tamarindus Indica,Tamarind,18.16070595,74.57525969,49,27,Heritage,Good,ABanyanhut Nagar,ABanyanhut Nagar,A Raut,Private,Good
180,W11641637834575-yj4oO,Limonia Acidissima,Wood-apple,18.15712864,74.57462937,55,26,Heritage,Good,Ozarday Estate,Ozarday Estate,A Raut,Government,Good
181,W11641637862886-yj4oO,Tamarindus Indica,Tamarind,18.15725256,74.57463305,48,29,Heritage,Good,Ozarday Estate,Ozarday Estate,A Raut,Government,Good
182,W11641637872818-yj4oO,Tamarindus Indica,Tamarind,18.1573561,74.57462132,51,27.5,Heritage,Good,Ozarday Estate,Ozarday Estate,A Raut,Government,Good
183,W11641637919368-yj4oO,Tamarindus Indica,Tamarind,18.15744785,74.57466926,52,29,Heritage,Good,Ozarday Estate,Ozarday Estate,A Raut,Government,Good
184,W11641637920138-yj4oO,Tamarindus Indica,Tamarind,18.15757242,74.57476482,49,27,Heritage,Good,Ozarday Estate,Ozarday Estate,A Raut,Government,Good
185,W11641637925297-yj4oO,Tamarindus Indica,Tamarind,18.15765238,74.57479063,46,26,Heritage,Good,Ozarday Estate,Ozarday Estate,A Raut,Government,Good
186,W11641637926029-yj4oO,Tamarindus Indica,Tamarind,18.15770941,74.57483154,47,29,Heritage,Good,Ozarday Estate,Ozarday Estate,A Raut,Government,Good
187,W11641637926760-yj4oO,Tamarindus Indica,Tamarind,18.15777567,74.57483724,49,31,Heritage,Good,Ozarday Estate,Ozarday Estate,A Raut,Government,Good
188,W11641638133665-yj4oO,Tamarindus Indica,Tamarind,18.15844342,74.57504477,55,33,Heritage,Good,Ozarday Estate,Ozarday Estate,A Raut,Government,Good
189,W11641638134311-yj4oO,Tamarindus Indica,Tamarind,18.15838002,74.57499683,48,27,Heritage,Good,Ozarday Estate,Ozarday Estate,A Raut,Government,Good
190,W11641638135072-yj4oO,Tamarindus Indica,Tamarind,18.1582991,74.57498141,51,26,Heritage,Good,Ozarday Estate,Ozarday Estate,A Raut,Government,Good
191,W11641638135797-yj4oO,Tamarindus Indica,Tamarind,18.15822678,74.57497235,52,29,Heritage,Good,Ozarday Estate,Ozarday Estate,A Raut,Government,Good
192,W11641638136611-yj4oO,Tamarindus Indica,Tamarind,18.15815892,74.57494687,49,25,Heritage,Good,Ozarday Estate,Ozarday Estate,A Raut,Government,Good
193,W11641638150676-yj4oO,Tamarindus Indica,Tamarind,18.15808756,74.57493044,46,28,Heritage,Good,Ozarday Estate,Ozarday Estate,A Raut,Government,Good
194,W11641638151537-yj4oO,Tamarindus Indica,Tamarind,18.1580162,74.5749167,47,29,Heritage,Good,Ozarday Estate,Ozarday Estate,A Raut,Government,Good
195,W11641638152328-yj4oO,Tamarindus Indica,Tamarind,18.15792222,74.57489155,49,27,Heritage,Good,Ozarday Estate,Ozarday Estate,A Raut,Government,Good
196,W11641638316079-yj4oO,Tamarindus Indica,Tamarind,18.1553793,74.57535423,55,26,Heritage,Good,Advanzer Chowk,Advanzer Chowk,A Raut,Government,Good
197,W11641638342344-yj4oO,Tamarindus Indica,Tamarind,18.15522988,74.57535859,48,29,Heritage,Good,Advanzer Chowk,Advanzer Chowk,A Raut,Government,Good
198,W11641638388863-yj4oO,Ficus Benghalensis,Banyan,18.1552764,74.57559362,51,27.5,Heritage,Good,Advanzer Chowk,Advanzer Chowk,A Raut,Government,Good
199,W11641638391942-yj4oO,Ficus Benghalensis,Banyan,18.15522224,74.57547963,52,29,Heritage,Good,Advanzer Chowk,Advanzer Chowk,A Raut,Government,Good
200,W11641638403453-yj4oO,Ficus Benghalensis,Banyan,18.15522001,74.57523119,49,27,Heritage,Good,Advanzer Chowk,Advanzer Chowk,A Raut,Government,Good
201,W11641638405911-yj4oO,Ficus Benghalensis,Banyan,18.15525537,74.57512993,88,26,Heritage,Good,Advanzer Chowk,Advanzer Chowk,A Raut,Government,Good
202,W11641638409563-yj4oO,Ficus Benghalensis,Banyan,18.15526206,74.575027,87,29,Heritage,Good,Advanzer Chowk,Advanzer Chowk,A Raut,Government,Good
203,W11641638412703-yj4oO,Ficus Benghalensis,Banyan,18.15525664,74.57495492,84,31,Heritage,Good,Advanzer Chowk,Advanzer Chowk,A Raut,Government,Good
204,W11641638413645-yj4oO,Ficus Benghalensis,Banyan,18.15527703,74.57486808,92,33,Heritage,Good,Advanzer Chowk,Advanzer Chowk,A Raut,Government,Good
205,W11641638415089-yj4oO,Ficus Benghalensis,Banyan,18.15532514,74.57478359,94,27,Heritage,Good,Advanzer Chowk,Advanzer Chowk,A Raut,Government,Good
206,W11641638416433-yj4oO,Ficus Benghalensis,Banyan,18.15536114,74.57470749,84,26,Heritage,Good,Advanzer Chowk,Advanzer Chowk,A Raut,Government,Good
207,W11641638427328-yj4oO,Ficus Benghalensis,Banyan,18.15541148,74.57463842,92,29,Heritage,Good,Advanzer Chowk,Advanzer Chowk,A Raut,Government,Good
208,W11641638428287-yj4oO,Ficus Benghalensis,Banyan,18.15550259,74.57459684,94,25,Heritage,Good,Advanzer Chowk,Advanzer Chowk,A Raut,Government,Good
209,W11641638441491-yj4oO,Ficus Benghalensis,Banyan,18.15554496,74.57542598,87,28,Heritage,Good,Advanzer Chowk,Advanzer Chowk,A Raut,Government,Good
210,W11641638442165-yj4oO,Ficus Benghalensis,Banyan,18.15565997,74.5753492,89,29,Heritage,Good,Advanzer Chowk,Advanzer Chowk,A Raut,Government,Good
211,W11641638452395-yj4oO,Ficus Benghalensis,Banyan,18.15619583,74.57548834,91,27,Heritage,Good,Advanzer Chowk,Advanzer Chowk,A Raut,Government,Good
212,W11641638476563-yj4oO,Ficus Benghalensis,Banyan,18.1554564,74.57548801,88,26,Heritage,Good,Advanzer Chowk,Advanzer Chowk,A Raut,Government,Good
213,W11641638510995-yj4oO,Tamarindus Indica,Tamarind,18.15558351,74.57459114,46,29,Heritage,Good,Advanzer Chowk,Advanzer Chowk,A Raut,Government,Good
214,W11641638513937-yj4oO,Tamarindus Indica,Tamarind,18.15564786,74.57459919,47,27.5,Heritage,Good,Advanzer Chowk,Advanzer Chowk,A Raut,Government,Good
215,W11641638514553-yj4oO,Tamarindus Indica,Tamarind,18.15569374,74.57461696,49,29,Heritage,Good,Advanzer Chowk,Advanzer Chowk,A Raut,Government,Good
216,W11641638520376-yj4oO,Tamarindus Indica,Tamarind,18.15546086,74.57461897,55,27,Heritage,Good,Advanzer Chowk,Advanzer Chowk,A Raut,Government,Good
217,W11641638521263-yj4oO,Tamarindus Indica,Tamarind,18.15555802,74.57459148,48,26,Heritage,Good,Advanzer Chowk,Advanzer Chowk,A Raut,Government,Good
218,W11641638535693-yj4oO,Tamarindus Indica,Tamarind,18.15572624,74.57476381,51,29,Heritage,Good,Advanzer Chowk,Advanzer Chowk,A Raut,Government,Good
219,W11641638536501-yj4oO,Tamarindus Indica,Tamarind,18.15574503,74.57469072,52,31,Heritage,Good,Advanzer Chowk,Advanzer Chowk,A Raut,Government,Good
220,W11641638546357-yj4oO,Tamarindus Indica,Tamarind,18.15567208,74.57470983,49,33,Heritage,Good,Advanzer Chowk,Advanzer Chowk,A Raut,Government,Good
221,W11641638564138-yj4oO,Tamarindus Indica,Tamarind,18.15580907,74.57449056,46,27,Heritage,Good,Advanzer Chowk,Advanzer Chowk,A Raut,Government,Good
222,W11641638583657-yj4oO,Ficus Benghalensis,Banyan,18.15577148,74.57486138,47,26,Heritage,Good,Advanzer Chowk,Advanzer Chowk,A Raut,Government,Good
223,W11641638796582-yj4oO,Ficus Benghalensis,Banyan,18.15491544,74.57503438,49,29,Heritage,Good,tc college road,tc college road,A Raut,Private,Good
224,W11641638810716-yj4oO,Ficus Benghalensis,Banyan,18.15468096,74.57509574,55,25,Heritage,Good,tc college road,tc college road,A Raut,Private,Good
225,W11641638816170-yj4oO,Ficus Benghalensis,Banyan,18.15484694,74.57501058,48,28,Heritage,Good,tc college road,tc college road,A Raut,Private,Good
226,W11641638899415-yj4oO,Ficus Benghalensis,Banyan,18.15416453,74.57590677,51,29,Heritage,Good,tc college road,tc college road,A Raut,Private,Good
227,W11641638957652-yj4oO,Albizia Lebbeck,Albizia lebbeck,18.15443214,74.57611665,59,27,Heritage,Good,tc college road,tc college road,A Raut,Government,Good
228,W11641638958432-yj4oO,Albizia Lebbeck,Albizia lebbeck,18.15430535,74.57637649,58,26,Heritage,Good,tc college road,tc college road,A Raut,Government,Good
229,W11641638980738-yj4oO,Ficus Benghalensis,Banyan,18.15455544,74.57620282,94,29,Heritage,Good,tc college road,tc college road,A Raut,Government,Good
230,W11641639159883-yj4oO,Ficus Religiosa,peepal tree,18.15495048,74.57637951,74,27.5,Heritage,Good,Tv College Road,Tv College Road,A Raut,Government,Good
231,W11641639192082-yj4oO,Ficus Benghalensis,Banyan,18.155465,74.57629535,92,29,Heritage,Good,Tv College Road,Tv College Road,A Raut,Government,Good
232,W11641639214893-yj4oO,Albizia Lebbeck,Albizia lebbeck,18.15484153,74.57631782,55,27,Heritage,Good,Tv College Road,Tv College Road,A Raut,Government,Good
233,W11641639307560-yj4oO,Ficus Benghalensis,Banyan,18.15705919,74.57688041,87,26,Heritage,Good,vasantnagar,vasantnagar,A Raut,Government,Good
234,W11641639308008-yj4oO,Ficus Benghalensis,Banyan,18.15685338,74.57694713,89,29,Heritage,Good,vasantnagar,vasantnagar,A Raut,Government,Good
235,W11641639346550-yj4oO,Ficus Benghalensis,Banyan,18.15736088,74.57741283,91,31,Heritage,Good,vasantnagar,vasantnagar,A Raut,Government,Good
236,W11641639374597-yj4oO,Ficus Benghalensis,Banyan,18.15661222,74.57753655,88,33,Heritage,Good,vasantnagar,vasantnagar,A Raut,Government,Good
237,W11641639995253-yj4oO,Tamarindus Indica,Tamarind,18.16253233,74.57801934,46,27,Heritage,Good,Satav Estat,Satav Estat,A Raut,Private,Good
238,W11641639999933-yj4oO,Tamarindus Indica,Tamarind,18.16267855,74.57771089,47,26,Heritage,Good,Satav Estat,Satav Estat,A Raut,Private,Good
239,W11641640005457-yj4oO,Tamarindus Indica,Tamarind,18.16223637,74.57814105,49,29,Heritage,Good,Satav Estat,Satav Estat,A Raut,Private,Good
240,W11641640011709-yj4oO,Tamarindus Indica,Tamarind,18.16233864,74.5780579,55,25,Heritage,Good,Satav Estat,Satav Estat,A Raut,Private,Good
241,W11641640866932-yj4oO,Tamarindus Indica,Tamarind,18.15350187,74.57013097,48,28,Heritage,Good,panchshil nagar,panchshil nagar,A Raut,Private,Good
242,W11641641229849-yj4oO,Ficus Benghalensis,Banyan,18.14693055,74.56802476,51,29,Heritage,Good,Ba n pa shala 2,Ba n pa shala 2,A Raut,Government,Good
243,W11641641436076-yj4oO,Ficus Religiosa,peepal tree,18.14665592,74.5691067,69,27,Heritage,Good,Kashi Vishwsewar mandir,Kashi Vishwsewar mandir,A Raut,Government,Good
244,W11641641647943-yj4oO,Azadirachta Indica,Neem Tree,18.14560995,74.56861753,52,26,Heritage,Good,Kashi Vishwsewar mandir,Kashi Vishwsewar mandir,A Raut,Government,Good
245,W11641641744171-yj4oO,Tamarindus Indica,Tamarind,18.14517538,74.56898097,56,29,Heritage,Good,Panchal nagar,Panchal nagar,A Raut,Private,Good
246,W11641641863787-yj4oO,Ficus Benghalensis,Banyan,18.14495777,74.56815083,59,27.5,Heritage,Good,Shivaji Udyan,Shivaji Udyan,A Raut,Government,Good
247,W11641641886162-yj4oO,Samanea Saman,Monkey pod tree,18.14454486,74.5685022,57,29,Heritage,Good,Shivaji Udyan,Shivaji Udyan,A Raut,Government,Good
248,W11641641886634-yj4oO,Samanea Saman,Monkey pod tree,18.14415935,74.56857026,55,27,Heritage,Good,Shivaji Udyan,Shivaji Udyan,A Raut,Government,Good
249,W11641643554110-yj4oO,Samanea Saman,Monkey pod tree,18.13361927,74.54007648,61,26,Heritage,Good,Nira baramati road,Nira baramati road,A Raut,Government,Good
250,W11641643557835-yj4oO,Samanea Saman,Monkey pod tree,18.1335702,74.53971975,53,29,Heritage,Good,Nira baramati road,Nira baramati road,A Raut,Government,Good
251,W11641643582116-yj4oO,Azadirachta Indica,Neem Tree,18.13367598,74.54035409,59,31,Heritage,Good,Nira baramati road,Nira baramati road,A Raut,Government,Good
252,W11641643663077-yj4oO,Samanea Saman,Monkey pod tree,18.13392323,74.5384182,54,33,Heritage,Good,Nira baramati road,Nira baramati road,A Raut,Government,Good
253,W11641643663442-yj4oO,Samanea Saman,Monkey pod tree,18.13396402,74.53818016,52,27,Heritage,Good,Nira baramati road,Nira baramati road,A Raut,Government,Good
254,W11641643664719-yj4oO,Samanea Saman,Monkey pod tree,18.13393853,74.53791361,79,26,Heritage,Good,Nira baramati road,Nira baramati road,A Raut,Government,Good
255,W11641643665780-yj4oO,Samanea Saman,Monkey pod tree,18.13391782,74.53771949,78,29,Heritage,Good,Nira baramati road,Nira baramati road,A Raut,Government,Good
256,W11641643668198-yj4oO,Samanea Saman,Monkey pod tree,18.13386333,74.53751799,80,25,Heritage,Good,Nira baramati road,Nira baramati road,A Raut,Government,Good
257,W11641643748954-yj4oO,Azadirachta Indica,Neem Tree,18.13341567,74.53662146,52,28,Heritage,Good,Nira baramati road,Nira baramati road,A Raut,Government,Good
258,W11641643817288-yj4oO,Samanea Saman,Monkey pod tree,18.13364954,74.53577019,56,29,Heritage,Good,Nira baramati road A pawar,Nira baramati road A pawar,A Raut,Government,Good
259,W11641643817977-yj4oO,Samanea Saman,Monkey pod tree,18.13362118,74.53546207,59,27,Heritage,Good,Nira baramati road A pawar,Nira baramati road A pawar,A Raut,Government,Good
260,W11641643818717-yj4oO,Samanea Saman,Monkey pod tree,18.13362086,74.53519553,57,26,Heritage,Good,Nira baramati road A pawar,Nira baramati road A pawar,A Raut,Government,Good
261,W11641643819555-yj4oO,Samanea Saman,Monkey pod tree,18.13362755,74.53493334,55,29,Heritage,Good,Nira baramati road A pawar,Nira baramati road A pawar,A Raut,Government,Good
262,W11641643820920-yj4oO,Samanea Saman,Monkey pod tree,18.13359537,74.53461852,61,27.5,Heritage,Good,Nira baramati road A pawar,Nira baramati road A pawar,A Raut,Government,Good
263,W11641643821577-yj4oO,Samanea Saman,Monkey pod tree,18.13360971,74.53431878,53,29,Heritage,Good,Nira baramati road A pawar,Nira baramati road A pawar,A Raut,Government,Good
264,W11641643851506-yj4oO,Azadirachta Indica,Neem Tree,18.13362118,74.53555629,59,27,Heritage,Good,Nira baramati road A pawar,Nira baramati road A pawar,A Raut,Government,Good
265,W11641643928713-yj4oO,Azadirachta Indica,Neem Tree,18.13364985,74.5358339,54,26,Heritage,Good,Nira baramati road A pawar,Nira baramati road A pawar,A Raut,Government,Good
266,W11641644177514-yj4oO,Ficus Benghalensis,Banyan,18.13297596,74.53831293,52,29,Heritage,Good,Nira baramati road A pawar,Nira baramati road A pawar,A Raut,Government,Good
267,W11641644297933-yj4oO,Azadirachta Indica,Neem Tree,18.13264937,74.53872297,52,31,Heritage,Good,Shardanagar,Shardanagar,A Raut,Government,Good
268,W11641644321318-yj4oO,Ficus Religiosa,peepal tree,18.13148129,74.53870051,71,33,Heritage,Good,Shardanagar,Shardanagar,A Raut,Government,Good
269,W11641644348061-yj4oO,Ficus Religiosa,peepal tree,18.13139462,74.53912195,74,27,Heritage,Good,Shardanagar,Shardanagar,A Raut,Government,Good
270,W11641644384355-yj4oO,Tamarindus Indica,Tamarind,18.13196146,74.53958429,57,26,Heritage,Good,Shardanagar,Shardanagar,A Raut,Government,Good
271,W11641644413350-yj4oO,Azadirachta Indica,Neem Tree,18.13219055,74.53918397,55,29,Heritage,Good,Shardanagar,Shardanagar,A Raut,Government,Good
272,W11641644525594-yj4oO,Samanea Saman,Monkey pod tree,18.13384294,74.53711599,61,25,Heritage,Good,Shardanagar,Shardanagar,A Raut,Government,Good
273,W11641644650715-yj4oO,Tamarindus Indica,Tamarind,18.13285935,74.54034872,53,28,Heritage,Good,Nira Baramati Road,Nira Baramati Road,A Raut,Government,Good
274,W11641644651599-yj4oO,Tamarindus Indica,Tamarind,18.13272967,74.54047278,59,29,Heritage,Good,Nira Baramati Road,Nira Baramati Road,A Raut,Government,Good
275,W11641644653224-yj4oO,Tamarindus Indica,Tamarind,18.133004,74.54021897,54,27,Heritage,Good,Nira Baramati Road,Nira Baramati Road,A Raut,Government,Good
276,W11641644828685-yj4oO,Tamarindus Indica,Tamarind,18.13323692,74.54127107,52,26,Heritage,Good,Nira Baramati Road,Nira Baramati Road,A Raut,Government,Good
277,W11641644850497-yj4oO,Tamarindus Indica,Tamarind,18.13286094,74.54079665,79,29,Heritage,Good,Nira Baramati Road,Nira Baramati Road,A Raut,Government,Good
278,W11641644874249-yj4oO,Tamarindus Indica,Tamarind,18.13235878,74.53923661,78,27.5,Heritage,Good,Nira Baramati Road,Nira Baramati Road,A Raut,Government,Good
279,W11641644875367-yj4oO,Tamarindus Indica,Tamarind,18.1328552,74.53963827,52,29,Heritage,Good,Nira Baramati Road,Nira Baramati Road,A Raut,Government,Good
280,W11641644878405-yj4oO,Tamarindus Indica,Tamarind,18.13271469,74.53961011,49,27,Heritage,Good,Nira Baramati Road,Nira Baramati Road,A Raut,Government,Good
281,W11641644880213-yj4oO,Tamarindus Indica,Tamarind,18.13192705,74.53924164,46,26,Heritage,Good,Nira Baramati Road,Nira Baramati Road,A Raut,Government,Good
282,W11641644896272-yj4oO,Tamarindus Indica,Tamarind,18.13254709,74.54034872,47,29,Heritage,Good,Nira Baramati Road,Nira Baramati Road,A Raut,Government,Good
283,W11641644899633-yj4oO,Tamarindus Indica,Tamarind,18.13245278,74.54054553,49,31,Heritage,Good,Nira Baramati Road,Nira Baramati Road,A Raut,Government,Good
284,W11641644903786-yj4oO,Tamarindus Indica,Tamarind,18.13198281,74.53988336,55,33,Heritage,Good,Nira Baramati Road,Nira Baramati Road,A Raut,Government,Good
285,W11641644907324-yj4oO,Tamarindus Indica,Tamarind,18.13198026,74.540109,48,27,Heritage,Good,Nira Baramati Road,Nira Baramati Road,A Raut,Government,Good
286,W11641644920697-yj4oO,Tamarindus Indica,Tamarind,18.13011054,74.53956552,51,26,Heritage,Good,Nira Baramati Road,Nira Baramati Road,A Raut,Government,Good
287,W11641644923735-yj4oO,Tamarindus Indica,Tamarind,18.13007549,74.54015493,52,29,Heritage,Good,Nira Baramati Road,Nira Baramati Road,A Raut,Government,Good
288,W11641644926287-yj4oO,Tamarindus Indica,Tamarind,18.13037309,74.54064645,49,25,Heritage,Good,Nira Baramati Road,Nira Baramati Road,A Raut,Government,Good
289,W11641645012780-yj4oO,Tamarindus Indica,Tamarind,18.13372091,74.54148933,46,28,Heritage,Good,Nira Baramati Road,Nira Baramati Road,A Raut,Government,Good
290,W11641645013568-yj4oO,Tamarindus Indica,Tamarind,18.13372346,74.54160735,47,29,Heritage,Good,Nira Baramati Road,Nira Baramati Road,A Raut,Government,Good
291,W11641645019116-yj4oO,Tamarindus Indica,Tamarind,18.13381044,74.54149436,49,27,Heritage,Good,Nira Baramati Road,Nira Baramati Road,A Raut,Government,Good
292,W11641645019805-yj4oO,Tamarindus Indica,Tamarind,18.13382064,74.54160634,55,26,Heritage,Good,Nira Baramati Road,Nira Baramati Road,A Raut,Government,Good
293,W11641645027169-yj4oO,Tamarindus Indica,Tamarind,18.13382446,74.54170223,48,29,Heritage,Good,Nira Baramati Road,Nira Baramati Road,A Raut,Government,Good
294,W11641645028118-yj4oO,Tamarindus Indica,Tamarind,18.13381777,74.54168078,51,27.5,Heritage,Good,Nira Baramati Road,Nira Baramati Road,A Raut,Government,Good
295,W11641645034638-yj4oO,Tamarindus Indica,Tamarind,18.13383083,74.54157718,52,29,Heritage,Good,Nira Baramati Road,Nira Baramati Road,A Raut,Government,Good
296,W11641645038600-yj4oO,Tamarindus Indica,Tamarind,18.13372123,74.54166669,49,27,Heritage,Good,Nira Baramati Road,Nira Baramati Road,A Raut,Government,Good
297,W11641645040335-yj4oO,Tamarindus Indica,Tamarind,18.13373174,74.54175722,46,26,Heritage,Good,Nira Baramati Road,Nira Baramati Road,A Raut,Government,Good
298,W11641645043959-yj4oO,Tamarindus Indica,Tamarind,18.1337327,74.54184338,47,29,Heritage,Good,Nira Baramati Road,Nira Baramati Road,A Raut,Government,Good
299,W11641645048391-yj4oO,Tamarindus Indica,Tamarind,18.13373588,74.54194464,49,31,Heritage,Good,Nira Baramati Road,Nira Baramati Road,A Raut,Government,Good
300,W11641645049592-yj4oO,Tamarindus Indica,Tamarind,18.13373748,74.54192318,55,33,Heritage,Good,Nira Baramati Road,Nira Baramati Road,A Raut,Government,Good
301,W11641645055852-yj4oO,Tamarindus Indica,Tamarind,18.13373333,74.54204589,48,27,Heritage,Good,Nira Baramati Road,Nira Baramati Road,A Raut,Government,Good
302,W11641645060432-yj4oO,Tamarindus Indica,Tamarind,18.13383434,74.54186786,51,26,Heritage,Good,Nira Baramati Road,Nira Baramati Road,A Raut,Government,Good
303,W11641645061227-yj4oO,Tamarindus Indica,Tamarind,18.13383179,74.54182863,52,29,Heritage,Good,Nira Baramati Road,Nira Baramati Road,A Raut,Government,Good
304,W11641645072578-yj4oO,Tamarindus Indica,Tamarind,18.13386238,74.54212032,49,25,Heritage,Good,Nira Baramati Road,Nira Baramati Road,A Raut,Government,Good
305,W11641645077092-yj4oO,Tamarindus Indica,Tamarind,18.1338474,74.54231713,46,28,Heritage,Good,Nira Baramati Road,Nira Baramati Road,A Raut,Government,Good
306,W11641645078473-yj4oO,Tamarindus Indica,Tamarind,18.13371676,74.54216693,47,29,Heritage,Good,Nira Baramati Road,Nira Baramati Road,A Raut,Government,Good
307,W11641645079160-yj4oO,Tamarindus Indica,Tamarind,18.13372919,74.54228293,49,27,Heritage,Good,Nira Baramati Road,Nira Baramati Road,A Raut,Government,Good
308,W11641645081466-yj4oO,Tamarindus Indica,Tamarind,18.13374034,74.54238318,55,26,Heritage,Good,Nira Baramati Road,Nira Baramati Road,A Raut,Government,Good
309,W11641645083252-yj4oO,Tamarindus Indica,Tamarind,18.13387162,74.54240564,48,29,Heritage,Good,Nira Baramati Road,Nira Baramati Road,A Raut,Government,Good
310,W11641645086652-yj4oO,Tamarindus Indica,Tamarind,18.13374257,74.54251461,51,27.5,Heritage,Good,Nira Baramati Road,Nira Baramati Road,A Raut,Government,Good
311,W11641645087679-yj4oO,Tamarindus Indica,Tamarind,18.13387225,74.54254445,52,29,Heritage,Good,Nira Baramati Road,Nira Baramati Road,A Raut,Government,Good
312,W11641645089202-yj4oO,Tamarindus Indica,Tamarind,18.13375149,74.5426219,49,27,Heritage,Good,Nira Baramati Road,Nira Baramati Road,A Raut,Government,Good
313,W11641645089819-yj4oO,Tamarindus Indica,Tamarind,18.13388436,74.54263531,46,26,Heritage,Good,Nira Baramati Road,Nira Baramati Road,A Raut,Government,Good
314,W11641645093889-yj4oO,Tamarindus Indica,Tamarind,18.13377252,74.54276606,47,29,Heritage,Good,Nira Baramati Road,Nira Baramati Road,A Raut,Government,Good
315,W11641645094367-yj4oO,Tamarindus Indica,Tamarind,18.13389679,74.54276942,49,31,Heritage,Good,Nira Baramati Road,Nira Baramati Road,A Raut,Government,Good
316,W11641645097198-yj4oO,Tamarindus Indica,Tamarind,18.13378686,74.54288676,55,33,Heritage,Good,Nira Baramati Road,Nira Baramati Road,A Raut,Government,Good
317,W11641645098389-yj4oO,Tamarindus Indica,Tamarind,18.133885,74.54289582,48,27,Heritage,Good,Nira Baramati Road,Nira Baramati Road,A Raut,Government,Good
318,W11641645101859-yj4oO,Tamarindus Indica,Tamarind,18.13378113,74.5429974,51,26,Heritage,Good,Nira Baramati Road,Nira Baramati Road,A Raut,Government,Good
319,W11641645105681-yj4oO,Tamarindus Indica,Tamarind,18.13387385,74.54297829,52,29,Heritage,Good,Nira Baramati Road,Nira Baramati Road,A Raut,Government,Good
320,W11641645108312-yj4oO,Tamarindus Indica,Tamarind,18.13377284,74.54316538,49,25,Heritage,Good,Nira Baramati Road,Nira Baramati Road,A Raut,Government,Good
321,W11641645109805-yj4oO,Tamarindus Indica,Tamarind,18.1337773,74.54326898,46,28,Heritage,Good,Nira Baramati Road,Nira Baramati Road,A Raut,Government,Good
322,W11641645110745-yj4oO,Tamarindus Indica,Tamarind,18.13377412,74.54337761,47,29,Heritage,Good,Nira Baramati Road,Nira Baramati Road,A Raut,Government,Good
323,W11641645111771-yj4oO,Tamarindus Indica,Tamarind,18.13390953,74.54333033,49,27,Heritage,Good,Nira Baramati Road,Nira Baramati Road,A Raut,Government,Good
324,W11641645114645-yj4oO,Tamarindus Indica,Tamarind,18.13390666,74.54327703,55,26,Heritage,Good,Nira Baramati Road,Nira Baramati Road,A Raut,Government,Good
325,W11641645117239-yj4oO,Tamarindus Indica,Tamarind,18.13390284,74.5431741,48,29,Heritage,Good,Nira Baramati Road,Nira Baramati Road,A Raut,Government,Good
326,W11641645137084-yj4oO,Tamarindus Indica,Tamarind,18.13388086,74.54462752,51,27.5,Heritage,Good,Nira Baramati Road,Nira Baramati Road,A Raut,Government,Good
327,W11641645140581-yj4oO,Tamarindus Indica,Tamarind,18.13393662,74.54482634,52,29,Heritage,Good,Nira Baramati Road,Nira Baramati Road,A Raut,Government,Good
328,W11641645153112-yj4oO,Tamarindus Indica,Tamarind,18.13406024,74.54515994,49,27,Heritage,Good,Nira Baramati Road,Nira Baramati Road,A Raut,Government,Good
329,W11641645159615-yj4oO,Tamarindus Indica,Tamarind,18.13412524,74.54534937,46,26,Heritage,Good,Nira Baramati Road,Nira Baramati Road,A Raut,Government,Good
330,W11641645160433-yj4oO,Tamarindus Indica,Tamarind,18.13417909,74.545459,47,29,Heritage,Good,Nira Baramati Road,Nira Baramati Road,A Raut,Government,Good
331,W11641645169308-yj4oO,Tamarindus Indica,Tamarind,18.13420044,74.54554886,49,31,Heritage,Good,Nira Baramati Road,Nira Baramati Road,A Raut,Government,Good
332,W11641645170268-yj4oO,Tamarindus Indica,Tamarind,18.13424313,74.54560652,55,33,Heritage,Good,Nira Baramati Road,Nira Baramati Road,A Raut,Government,Good
333,W11641645171556-yj4oO,Tamarindus Indica,Tamarind,18.1342648,74.5456833,48,27,Heritage,Good,Nira Baramati Road,Nira Baramati Road,A Raut,Government,Good
334,W11641645172493-yj4oO,Tamarindus Indica,Tamarind,18.13430144,74.54577081,51,26,Heritage,Good,Nira Baramati Road,Nira Baramati Road,A Raut,Government,Good
335,W11641645176789-yj4oO,Tamarindus Indica,Tamarind,18.13435879,74.5454694,52,29,Heritage,Good,Nira Baramati Road,Nira Baramati Road,A Raut,Government,Good
336,W11641645187374-yj4oO,Tamarindus Indica,Tamarind,18.13435465,74.54593342,49,25,Heritage,Good,Nira Baramati Road,Nira Baramati Road,A Raut,Government,Good
337,W11641645189598-yj4oO,Tamarindus Indica,Tamarind,18.13452734,74.5458962,46,28,Heritage,Good,Nira Baramati Road,Nira Baramati Road,A Raut,Government,Good
338,W11641645192325-yj4oO,Tamarindus Indica,Tamarind,18.1344684,74.54615738,47,29,Heritage,Good,Nira Baramati Road,Nira Baramati Road,A Raut,Government,Good
339,W11641645194414-yj4oO,Tamarindus Indica,Tamarind,18.13457768,74.54609569,49,27,Heritage,Good,Nira Baramati Road,Nira Baramati Road,A Raut,Government,Good
340,W11641645196450-yj4oO,Tamarindus Indica,Tamarind,18.13450568,74.54598606,55,26,Heritage,Good,Nira Baramati Road,Nira Baramati Road,A Raut,Government,Good
341,W11641645199408-yj4oO,Tamarindus Indica,Tamarind,18.13462452,74.54624187,48,29,Heritage,Good,Nira Baramati Road,Nira Baramati Road,A Raut,Government,Good
342,W11641645200162-yj4oO,Tamarindus Indica,Tamarind,18.1346704,74.5463391,51,27.5,Heritage,Good,Nira Baramati Road,Nira Baramati Road,A Raut,Government,Good
343,W11641645201159-yj4oO,Tamarindus Indica,Tamarind,18.13469972,74.54644203,52,29,Heritage,Good,Nira Baramati Road,Nira Baramati Road,A Raut,Government,Good
344,W11641645210706-yj4oO,Tamarindus Indica,Tamarind,18.13474655,74.54646382,49,27,Heritage,Good,Nira Baramati Road,Nira Baramati Road,A Raut,Government,Good
345,W11641645215824-yj4oO,Tamarindus Indica,Tamarind,18.13491925,74.54670221,46,26,Heritage,Good,Nira Baramati Road,Nira Baramati Road,A Raut,Government,Good
346,W11641645229061-yj4oO,Tamarindus Indica,Tamarind,18.13508493,74.5470928,47,29,Heritage,Good,Nira Baramati Road,Nira Baramati Road,A Raut,Government,Good
347,W11641645232376-yj4oO,Tamarindus Indica,Tamarind,18.13512348,74.5471897,49,31,Heritage,Good,Nira Baramati Road,Nira Baramati Road,A Raut,Government,Good
348,W11641645233346-yj4oO,Tamarindus Indica,Tamarind,18.13518657,74.54724368,55,33,Heritage,Good,Nira Baramati Road,Nira Baramati Road,A Raut,Government,Good
349,W11641645235790-yj4oO,Tamarindus Indica,Tamarind,18.1352025,74.54708576,48,34,Heritage,Good,Nira Baramati Road,Nira Baramati Road,A Raut,Government,Good
350,W11641645236895-yj4oO,Tamarindus Indica,Tamarind,18.13523978,74.54717964,51,38,Heritage,Good,Nira Baramati Road,Nira Baramati Road,A Raut,Government,Good
351,W11641645240320-yj4oO,Tamarindus Indica,Tamarind,18.13530542,74.54725474,52,37,Heritage,Good,Nira Baramati Road,Nira Baramati Road,A Raut,Government,Good
352,W11641645243105-yj4oO,Tamarindus Indica,Tamarind,18.13533632,74.54731677,49,35,Heritage,Good,Nira Baramati Road,Nira Baramati Road,A Raut,Government,Good
353,W11641645248982-yj4oO,Tamarindus Indica,Tamarind,18.13530637,74.54745926,46,33,Heritage,Good,Nira Baramati Road,Nira Baramati Road,A Raut,Government,Good
354,W11641645259917-yj4oO,Tamarindus Indica,Tamarind,18.1354437,74.54764064,47,32,Heritage,Good,Nira Baramati Road,Nira Baramati Road,A Raut,Government,Good
355,W11641645262185-yj4oO,Tamarindus Indica,Tamarind,18.13548544,74.5475005,49,27,Heritage,Good,Nira Baramati Road,Nira Baramati Road,A Raut,Government,Good
356,W11641645264202-yj4oO,Tamarindus Indica,Tamarind,18.13563646,74.54774693,55,26,Heritage,Good,Nira Baramati Road,Nira Baramati Road,A Raut,Government,Good
357,W11641645269790-yj4oO,Tamarindus Indica,Tamarind,18.13536978,74.54783611,48,29,Heritage,Good,Nira Baramati Road,Nira Baramati Road,A Raut,Government,Good
358,W11641645272582-yj4oO,Tamarindus Indica,Tamarind,18.13538985,74.54797022,51,27.5,Heritage,Good,Nira Baramati Road,Nira Baramati Road,A Raut,Government,Good
359,W11641645274341-yj4oO,Tamarindus Indica,Tamarind,18.1354523,74.54803023,52,29,Heritage,Good,Nira Baramati Road,Nira Baramati Road,A Raut,Government,Good
360,W11641645279307-yj4oO,Tamarindus Indica,Tamarind,18.13556446,74.54781834,49,27,Heritage,Good,Nira Baramati Road,Nira Baramati Road,A Raut,Government,Good
361,W11641645282007-yj4oO,Tamarindus Indica,Tamarind,18.13573141,74.547874,46,26,Heritage,Good,Nira Baramati Road,Nira Baramati Road,A Raut,Government,Good
362,W11641645282799-yj4oO,Tamarindus Indica,Tamarind,18.13564411,74.547932,47,29,Heritage,Good,Nira Baramati Road,Nira Baramati Road,A Raut,Government,Good
363,W11641645285373-yj4oO,Tamarindus Indica,Tamarind,18.13596624,74.54826359,49,31,Heritage,Good,Nira Baramati Road,Nira Baramati Road,A Raut,Government,Good
364,W11641645292668-yj4oO,Tamarindus Indica,Tamarind,18.13583592,74.54829913,55,33,Heritage,Good,Nira Baramati Road,Nira Baramati Road,A Raut,Government,Good
365,W11641645293403-yj4oO,Tamarindus Indica,Tamarind,18.13586332,74.54807885,48,34,Heritage,Good,Nira Baramati Road,Nira Baramati Road,A Raut,Government,Good
366,W11641645294098-yj4oO,Tamarindus Indica,Tamarind,18.13590187,74.54846039,51,38,Heritage,Good,Nira Baramati Road,Nira Baramati Road,A Raut,Government,Good
367,W11641645299390-yj4oO,Tamarindus Indica,Tamarind,18.13597834,74.54870481,52,37,Heritage,Good,Nira Baramati Road,Nira Baramati Road,A Raut,Government,Good
368,W11641645301812-yj4oO,Tamarindus Indica,Tamarind,18.13593055,74.54853583,49,35,Heritage,Good,Nira Baramati Road,Nira Baramati Road,A Raut,Government,Good
369,W11641645302538-yj4oO,Tamarindus Indica,Tamarind,18.13594043,74.54860155,46,33,Heritage,Good,Nira Baramati Road,Nira Baramati Road,A Raut,Government,Good
370,W11641645316356-yj4oO,Tamarindus Indica,Tamarind,18.13621093,74.5490307,47,32,Heritage,Good,Nira Baramati Road,Nira Baramati Road,A Raut,Government,Good
371,W11641645334394-yj4oO,Tamarindus Indica,Tamarind,18.13607488,74.54907026,49,27,Heritage,Good,Nira Baramati Road,Nira Baramati Road,A Raut,Government,Good
372,W11641645334983-yj4oO,Tamarindus Indica,Tamarind,18.1360854,74.54905618,55,26,Heritage,Good,Nira Baramati Road,Nira Baramati Road,A Raut,Government,Good
373,W11641645336464-yj4oO,Tamarindus Indica,Tamarind,18.13614785,74.54931267,48,29,Heritage,Good,Nira Baramati Road,Nira Baramati Road,A Raut,Government,Good
374,W11641645340419-yj4oO,Tamarindus Indica,Tamarind,18.13617907,74.54942465,51,27.5,Heritage,Good,Nira Baramati Road,Nira Baramati Road,A Raut,Government,Good
375,W11641645341484-yj4oO,Tamarindus Indica,Tamarind,18.13620106,74.5495078,52,29,Heritage,Good,Nira Baramati Road,Nira Baramati Road,A Raut,Government,Good
376,W11641645345281-yj4oO,Tamarindus Indica,Tamarind,18.13595986,74.54965968,49,27,Heritage,Good,Nira Baramati Road,Nira Baramati Road,A Raut,Government,Good
377,W11641645348533-yj4oO,Tamarindus Indica,Tamarind,18.13603091,74.54978138,46,26,Heritage,Good,Nira Baramati Road,Nira Baramati Road,A Raut,Government,Good
378,W11641645352743-yj4oO,Tamarindus Indica,Tamarind,18.13629123,74.54940353,47,29,Heritage,Good,Nira Baramati Road,Nira Baramati Road,A Raut,Government,Good
379,W11641645355442-yj4oO,Tamarindus Indica,Tamarind,18.13631608,74.54948734,49,31,Heritage,Good,Nira Baramati Road,Nira Baramati Road,A Raut,Government,Good
380,W11641645376439-yj4oO,Tamarindus Indica,Tamarind,18.13631353,74.54981022,55,33,Heritage,Good,Nira Baramati Road,Nira Baramati Road,A Raut,Government,Good
381,W11641645377578-yj4oO,Tamarindus Indica,Tamarind,18.13634061,74.54993997,48,34,Heritage,Good,Nira Baramati Road,Nira Baramati Road,A Raut,Government,Good
382,W11641645378606-yj4oO,Tamarindus Indica,Tamarind,18.13644448,74.55017667,51,38,Heritage,Good,Nira Baramati Road,Nira Baramati Road,A Raut,Government,Good
383,W11641645398627-yj4oO,Tamarindus Indica,Tamarind,18.13613001,74.55025747,52,37,Heritage,Good,Nira Baramati Road,Nira Baramati Road,A Raut,Government,Good
384,W11641645415256-yj4oO,Tamarindus Indica,Tamarind,18.13712824,74.55159087,49,35,Heritage,Good,Nira Baramati Road,Nira Baramati Road,A Raut,Government,Good
385,W11641645429086-yj4oO,Tamarindus Indica,Tamarind,18.13746788,74.55220073,46,33,Heritage,Good,Nira Baramati Road,Nira Baramati Road,A Raut,Government,Good
386,W11641645429712-yj4oO,Tamarindus Indica,Tamarind,18.13749497,74.5523449,47,32,Heritage,Good,Nira Baramati Road,Nira Baramati Road,A Raut,Government,Good
387,W11641645439261-yj4oO,Tamarindus Indica,Tamarind,18.13686601,74.55165055,49,39,Heritage,Good,Nira Baramati Road,Nira Baramati Road,A Raut,Government,Good
388,W11641645627533-yj4oO,Tamarindus Indica,Tamarind,18.13060952,74.53908674,55,38,Heritage,Good,Shardanagar,Shardanagar,A Raut,Government,Good
389,W11641645628270-yj4oO,Tamarindus Indica,Tamarind,18.13035907,74.53869112,48,32,Heritage,Good,Shardanagar,Shardanagar,A Raut,Government,Good
390,W11641645628997-yj4oO,Tamarindus Indica,Tamarind,18.1307529,74.53863882,51,34,Heritage,Good,Shardanagar,Shardanagar,A Raut,Government,Good
391,W11641645628270-yj4oO,Mangifera indica,Mango,18.16003758,74.57247321,51,38,Heritage,Good,Tatiya Easte,Tatiya Easte,A Raut,Government,Good
392,W11641645628997-yj4oO,Mangifera indica,Mango,18.1599213,74.57241856,52,37,Heritage,Good,Tatiya Easte,Tatiya Easte,A Raut,Government,Good
393,W11641645628270-yj4oO,Mangifera indica,Mango,18.15972155,74.5723277,49,35,Heritage,Good,Tatiya Easte,Tatiya Easte,A Raut,Government,Good
394,W11641645628997-yj4oO,Mangifera indica,Mango,18.15944311,74.57218889,46,33,Heritage,Good,Tatiya Easte,Tatiya Easte,A Raut,Government,Good
395,W11641645628270-yj4oO,Mangifera indica,Mango,18.15966166,74.57228411,47,32,Heritage,Good,Tatiya Easte,Tatiya Easte,A Raut,Government,Good
396,W11641645628997-yj4oO,Mangifera indica,Mango,18.15966166,74.57228411,48,34,Heritage,Good,Tatiya Easte,Tatiya Easte,A Raut,Government,Good
397,W11641645628270-yj4oO,Mangifera indica,Mango,18.1600328,74.57280446,49,39,Heritage,Good,Tatiya Easte,Tatiya Easte,A Raut,Government,Good
398,W11641645628997-yj4oO,Samanea saman,Monkey pod tree,18.16001177,74.56925858,55,38,Heritage,Good,Tatiya Easte,Tatiya Easte,A Raut,Government,Good
399,W11641645628270-yj4oO,Samanea saman,Monkey pod tree,18.15983496,74.56930317,48,32,Heritage,Good,Tatiya Easte,Tatiya Easte,A Raut,Government,Good
400,W11641645628997-yj4oO,Ficus racemosa,Cluster fig,18.15951193,74.57263246,67,56,Heritage,Good,Bohra Kabrstan,Bohra Kabrstan,A Raut,Government,Good
